{
  "type": "FeatureCollection",
  "features": [
    {
      "type": "Feature",
      "properties": {
        "norad_id": 37836,
        "name": "EUTELSAT 16A",
        "group": "eutelsat",
        "lat": -0.024833265755115613,
        "lon": -35.0000941861412,
        "alt_km": 35772.449211909516,
        "timestamp": "2025-12-20T14:38:01.629934+00:00",
        "meta_object_name": "EUTELSAT 16A",
        "meta_object_id": "2011-057A",
        "meta_epoch": "2025-12-20T04:44:49.858656",
        "meta_mean_motion": 1.0026922,
        "meta_eccentricity": 0.00058848,
        "meta_inclination": 0.0601,
        "meta_ra_of_asc_node": 337.1728,
        "meta_arg_of_pericenter": 292.8299,
        "meta_mean_anomaly": 266.25,
        "meta_ephemeris_type": 0,
        "meta_classification_type": "U",
        "meta_norad_cat_id": 37836,
        "meta_element_set_no": 999,
        "meta_rev_at_epoch": 553,
        "meta_bstar": 0,
        "meta_mean_motion_dot": 1.28e-06,
        "meta_mean_motion_ddot": 0,
        "tle_line1": "1 37836U 11057A   25354.19779929  .00000128  00000+0  00000+0 0  9992",
        "tle_line2": "2 37836   0.0601 337.1728 0005884 292.8299 266.2500  1.00269220  5539"
      },
      "geometry": {
        "type": "Point",
        "coordinates": [
          -35.0000941861412,
          -0.024833265755115613
        ]
      }
    },
    {
      "type": "Feature",
      "properties": {
        "norad_id": 38992,
        "name": "EUTELSAT 21B",
        "group": "eutelsat",
        "lat": -0.020480275686923434,
        "lon": -29.427852696987333,
        "alt_km": 35779.58285679822,
        "timestamp": "2025-12-20T14:38:01.629946+00:00",
        "meta_object_name": "EUTELSAT 21B",
        "meta_object_id": "2012-062B",
        "meta_epoch": "2025-12-20T02:27:38.705184",
        "meta_mean_motion": 1.00268835,
        "meta_eccentricity": 0.00032864,
        "meta_inclination": 0.0694,
        "meta_ra_of_asc_node": 339.1194,
        "meta_arg_of_pericenter": 292.9283,
        "meta_mean_anomaly": 235.4116,
        "meta_ephemeris_type": 0,
        "meta_classification_type": "U",
        "meta_norad_cat_id": 38992,
        "meta_element_set_no": 999,
        "meta_rev_at_epoch": 4803,
        "meta_bstar": 0,
        "meta_mean_motion_dot": 1.54e-06,
        "meta_mean_motion_ddot": 0,
        "tle_line1": "1 38992U 12062B   25354.10253131  .00000154  00000+0  00000+0 0  9995",
        "tle_line2": "2 38992   0.0694 339.1194 0003286 292.9283 235.4116  1.00268835 48036"
      },
      "geometry": {
        "type": "Point",
        "coordinates": [
          -29.427852696987333,
          -0.020480275686923434
        ]
      }
    },
    {
      "type": "Feature",
      "properties": {
        "norad_id": 39020,
        "name": "EUTELSAT 70B",
        "group": "eutelsat",
        "lat": 0.026159031503607665,
        "lon": 19.468696448070787,
        "alt_km": 35796.78168444501,
        "timestamp": "2025-12-20T14:38:01.629958+00:00",
        "meta_object_name": "EUTELSAT 70B",
        "meta_object_id": "2012-069A",
        "meta_epoch": "2025-12-20T05:00:10.888704",
        "meta_mean_motion": 1.00271428,
        "meta_eccentricity": 0.00042849,
        "meta_inclination": 0.0611,
        "meta_ra_of_asc_node": 4.0824,
        "meta_arg_of_pericenter": 249.4305,
        "meta_mean_anomaly": 341.0688,
        "meta_ephemeris_type": 0,
        "meta_classification_type": "U",
        "meta_norad_cat_id": 39020,
        "meta_element_set_no": 999,
        "meta_rev_at_epoch": 4771,
        "meta_bstar": 0,
        "meta_mean_motion_dot": -1.9e-07,
        "meta_mean_motion_ddot": 0,
        "tle_line1": "1 39020U 12069A   25354.20845936 -.00000019  00000+0  00000+0 0  9997",
        "tle_line2": "2 39020   0.0611   4.0824 0004284 249.4305 341.0688  1.00271428 47711"
      },
      "geometry": {
        "type": "Point",
        "coordinates": [
          19.468696448070787,
          0.026159031503607665
        ]
      }
    },
    {
      "type": "Feature",
      "properties": {
        "norad_id": 39122,
        "name": "EUTELSAT 117 WEST A",
        "group": "eutelsat",
        "lat": -0.034999245791904374,
        "lon": -167.87120805278545,
        "alt_km": 35783.59308191606,
        "timestamp": "2025-12-20T14:38:01.629970+00:00",
        "meta_object_name": "EUTELSAT 117 WEST A",
        "meta_object_id": "2013-012A",
        "meta_epoch": "2025-12-19T12:21:38.812320",
        "meta_mean_motion": 1.00274631,
        "meta_eccentricity": 0.0002807,
        "meta_inclination": 0.032,
        "meta_ra_of_asc_node": 299.7491,
        "meta_arg_of_pericenter": 334.4616,
        "meta_mean_anomaly": 242.7738,
        "meta_ephemeris_type": 0,
        "meta_classification_type": "U",
        "meta_norad_cat_id": 39122,
        "meta_element_set_no": 999,
        "meta_rev_at_epoch": 4663,
        "meta_bstar": 0,
        "meta_mean_motion_dot": 1.1e-07,
        "meta_mean_motion_ddot": 0,
        "tle_line1": "1 39122U 13012A   25353.51503255  .00000011  00000+0  00000+0 0  9998",
        "tle_line2": "2 39122   0.0320 299.7491 0002807 334.4616 242.7738  1.00274631 46635"
      },
      "geometry": {
        "type": "Point",
        "coordinates": [
          -167.87120805278545,
          -0.034999245791904374
        ]
      }
    },
    {
      "type": "Feature",
      "properties": {
        "norad_id": 39163,
        "name": "EUTELSAT 7B",
        "group": "eutelsat",
        "lat": -0.06241263711130599,
        "lon": -44.069217878942965,
        "alt_km": 35768.113018150645,
        "timestamp": "2025-12-20T14:38:01.629983+00:00",
        "meta_object_name": "EUTELSAT 7B",
        "meta_object_id": "2013-022A",
        "meta_epoch": "2025-12-20T04:42:12.609792",
        "meta_mean_motion": 1.0027074,
        "meta_eccentricity": 0.00043582,
        "meta_inclination": 0.0652,
        "meta_ra_of_asc_node": 358.7176,
        "meta_arg_of_pericenter": 323.511,
        "meta_mean_anomaly": 204.3565,
        "meta_ephemeris_type": 0,
        "meta_classification_type": "U",
        "meta_norad_cat_id": 39163,
        "meta_element_set_no": 999,
        "meta_rev_at_epoch": 4615,
        "meta_bstar": 0,
        "meta_mean_motion_dot": 7.2e-07,
        "meta_mean_motion_ddot": 0,
        "tle_line1": "1 39163U 13022A   25354.19597928  .00000072  00000+0  00000+0 0  9996",
        "tle_line2": "2 39163   0.0652 358.7176 0004358 323.5110 204.3565  1.00270740 46151"
      },
      "geometry": {
        "type": "Point",
        "coordinates": [
          -44.069217878942965,
          -0.06241263711130599
        ]
      }
    },
    {
      "type": "Feature",
      "properties": {
        "norad_id": 39612,
        "name": "EXPRESS-AT1",
        "group": "eutelsat",
        "lat": 0.0034823544007932025,
        "lon": 4.914456902276773,
        "alt_km": 35786.212480222544,
        "timestamp": "2025-12-20T14:38:01.629994+00:00",
        "meta_object_name": "EXPRESS-AT1",
        "meta_object_id": "2014-010A",
        "meta_epoch": "2025-12-19T13:31:46.041312",
        "meta_mean_motion": 1.00270605,
        "meta_eccentricity": 4.94e-05,
        "meta_inclination": 0.022,
        "meta_ra_of_asc_node": 3.3546,
        "meta_arg_of_pericenter": 88.7338,
        "meta_mean_anomaly": 255.2488,
        "meta_ephemeris_type": 0,
        "meta_classification_type": "U",
        "meta_norad_cat_id": 39612,
        "meta_element_set_no": 999,
        "meta_rev_at_epoch": 4301,
        "meta_bstar": 0,
        "meta_mean_motion_dot": 0,
        "meta_mean_motion_ddot": 0,
        "tle_line1": "1 39612U 14010A   25353.56372733  .00000000  00000+0  00000+0 0  9999",
        "tle_line2": "2 39612   0.0220   3.3546 0000494  88.7338 255.2488  1.00270605 43015"
      },
      "geometry": {
        "type": "Point",
        "coordinates": [
          4.914456902276773,
          0.0034823544007932025
        ]
      }
    },
    {
      "type": "Feature",
      "properties": {
        "norad_id": 39613,
        "name": "EXPRESS-AT2",
        "group": "eutelsat",
        "lat": 0.0379000317654032,
        "lon": 88.79848740521669,
        "alt_km": 35790.243817325776,
        "timestamp": "2025-12-20T14:38:01.630025+00:00",
        "meta_object_name": "EXPRESS-AT2",
        "meta_object_id": "2014-010B",
        "meta_epoch": "2025-12-20T07:02:51.639072",
        "meta_mean_motion": 1.00271348,
        "meta_eccentricity": 0.00010191,
        "meta_inclination": 0.0175,
        "meta_ra_of_asc_node": 325.0132,
        "meta_arg_of_pericenter": 325.6929,
        "meta_mean_anomaly": 43.995,
        "meta_ephemeris_type": 0,
        "meta_classification_type": "U",
        "meta_norad_cat_id": 39613,
        "meta_element_set_no": 999,
        "meta_rev_at_epoch": 4270,
        "meta_bstar": 0,
        "meta_mean_motion_dot": -2.57e-06,
        "meta_mean_motion_ddot": 0,
        "tle_line1": "1 39613U 14010B   25354.29365323 -.00000257  00000+0  00000+0 0  9993",
        "tle_line2": "2 39613   0.0175 325.0132 0001019 325.6929  43.9950  1.00271348 42709"
      },
      "geometry": {
        "type": "Point",
        "coordinates": [
          88.79848740521669,
          0.0379000317654032
        ]
      }
    }
  ]
}